[{"OBJECT_NAME":"STARLINK-6090","OBJECT_ID":"2023-046C","EPOCH":"2026-03-09T22:00:01.999584","MEAN_MOTION":15.06479853,"ECCENTRICITY":0.00016264,"INCLINATION":43.0008,"RA_OF_ASC_NODE":157.9822,"ARG_OF_PERICENTER":282.1189,"MEAN_ANOMALY":56.0647,"EPHEMERIS_TYPE":0,"CLASSIFICATION_TYPE":"U","NORAD_CAT_ID":56095,"ELEMENT_SET_NO":999,"REV_AT_EPOCH":577,"BSTAR":0.00017997304,"MEAN_MOTION_DOT":2.492e-5,"MEAN_MOTION_DDOT":0},{"OBJECT_NAME":"OBJECT A","OBJECT_ID":"2024-128A","EPOCH":"2026-03-09T23:23:08.128896","MEAN_MOTION":15.00647164,"ECCENTRICITY":0.00604583,"INCLINATION":61.9933,"RA_OF_ASC_NODE":216.2149,"ARG_OF_PERICENTER":112.7248,"MEAN_ANOMALY":248.0248,"EPHEMERIS_TYPE":0,"CLASSIFICATION_TYPE":"U","NORAD_CAT_ID":60235,"ELEMENT_SET_NO":999,"REV_AT_EPOCH":9111,"BSTAR":0.00034041236,"MEAN_MOTION_DOT":4.284e-5,"MEAN_MOTION_DDOT":0}]
